0 FENGYUN 1C DEB
1 36274U 99025DXB 13282.70125357  .00002967  00000-0  21302-2 0  2563
2 36274 099.1089 248.7813 0101842 313.7993 045.4792 13.95327289282242
0 FENGYUN 1C DEB
1 36274U 99025DXB 13286.71675970  .00003002  00000-0  21509-2 0  2581
2 36274 099.1065 252.7384 0103432 302.5036 056.6427 13.95353432282805
0 FENGYUN 1C DEB
1 36274U 99025DXB 13288.72448418  .00003010  00000-0  21546-2 0  2590
2 36274 099.1059 254.7204 0104198 297.0816 061.9744 13.95366036283081
0 FENGYUN 1C DEB
1 36274U 99025DXB 13289.15471035  .00003208  00000-0  22957-2 0  2607
2 36274 099.1063 255.1654 0103156 298.3382 060.7349 13.95373436283142
0 FENGYUN 1C DEB
1 36274U 99025DXB 13291.16241584  .00003233  00000-0  23126-2 0  2613
2 36274 099.1059 257.1498 0103432 293.0650 065.9731 13.95387288283425
0 FENGYUN 1C DEB
1 36274U 99025DXB 13292.73987878  .00003287  00000-0  23516-2 0  2623
2 36274 099.1054 258.7069 0102629 288.9356 070.0845 13.95399482283640
0 FENGYUN 1C DEB
1 36274U 99025DXB 13295.17775678  .00003308  00000-0  23638-2 0  2637
2 36274 099.1042 261.1132 0103509 282.5358 076.4339 13.95416568283986
